{
  "type": "FeatureCollection",
  "features": [
    {
      "type": "Feature",
      "properties": {
        "norad_id": 40115,
        "name": "WORLDVIEW-3 (WV-3)",
        "group": "resource",
        "lat": -77.51721134174804,
        "lon": -162.97706948457298,
        "alt_km": 617.9777233621426,
        "timestamp": "2025-12-09T07:41:32.859991+00:00",
        "meta_object_name": "WORLDVIEW-3 (WV-3)",
        "meta_object_id": "2014-048A",
        "meta_epoch": "2025-12-08T22:26:28.990464",
        "meta_mean_motion": 14.85495819,
        "meta_eccentricity": 0.00044719,
        "meta_inclination": 97.8619,
        "meta_ra_of_asc_node": 55.2632,
        "meta_arg_of_pericenter": 197.8409,
        "meta_mean_anomaly": 162.265,
        "meta_ephemeris_type": 0,
        "meta_classification_type": "U",
        "meta_norad_cat_id": 40115,
        "meta_element_set_no": 999,
        "meta_rev_at_epoch": 61367,
        "meta_bstar": 0.00021923466,
        "meta_mean_motion_dot": 1.839e-05,
        "meta_mean_motion_ddot": 0,
        "tle_line1": "1 40115U 14048A   25342.93505776  .00001839  00000+0  21923-3 0  9996",
        "tle_line2": "2 40115  97.8619  55.2632 0004471 197.8409 162.2650 14.85495819613679"
      },
      "geometry": {
        "type": "Point",
        "coordinates": [
          -162.97706948457298,
          -77.51721134174804
        ]
      }
    },
    {
      "type": "Feature",
      "properties": {
        "norad_id": 40118,
        "name": "GAOFEN-2",
        "group": "resource",
        "lat": 41.57752642023365,
        "lon": -130.31463086572427,
        "alt_km": 618.4171627674123,
        "timestamp": "2025-12-09T07:41:32.860002+00:00",
        "meta_object_name": "GAOFEN-2",
        "meta_object_id": "2014-049A",
        "meta_epoch": "2025-12-08T22:57:45.893952",
        "meta_mean_motion": 14.80597966,
        "meta_eccentricity": 0.00084424,
        "meta_inclination": 98.0387,
        "meta_ra_of_asc_node": 42.1186,
        "meta_arg_of_pericenter": 123.0914,
        "meta_mean_anomaly": 237.111,
        "meta_ephemeris_type": 0,
        "meta_classification_type": "U",
        "meta_norad_cat_id": 40118,
        "meta_element_set_no": 999,
        "meta_rev_at_epoch": 61108,
        "meta_bstar": 0.00014496556,
        "meta_mean_motion_dot": 1.059e-05,
        "meta_mean_motion_ddot": 0,
        "tle_line1": "1 40118U 14049A   25342.95678118  .00001059  00000+0  14497-3 0  9995",
        "tle_line2": "2 40118  98.0387  42.1186 0008442 123.0914 237.1110 14.80597966611087"
      },
      "geometry": {
        "type": "Point",
        "coordinates": [
          -130.31463086572427,
          41.57752642023365
        ]
      }
    },
    {
      "type": "Feature",
      "properties": {
        "norad_id": 40143,
        "name": "YAOGAN-21",
        "group": "resource",
        "lat": -66.62141943017059,
        "lon": 43.72512076367299,
        "alt_km": 505.58671328742093,
        "timestamp": "2025-12-09T07:41:32.860013+00:00",
        "meta_object_name": "YAOGAN-21",
        "meta_object_id": "2014-053A",
        "meta_epoch": "2025-12-09T00:06:28.792224",
        "meta_mean_motion": 15.23605202,
        "meta_eccentricity": 0.00099636,
        "meta_inclination": 97.1756,
        "meta_ra_of_asc_node": 26.4791,
        "meta_arg_of_pericenter": 52.7646,
        "meta_mean_anomaly": 307.4499,
        "meta_ephemeris_type": 0,
        "meta_classification_type": "U",
        "meta_norad_cat_id": 40143,
        "meta_element_set_no": 999,
        "meta_rev_at_epoch": 62597,
        "meta_bstar": 0.00027197459,
        "meta_mean_motion_dot": 6.452e-05,
        "meta_mean_motion_ddot": 0,
        "tle_line1": "1 40143U 14053A   25343.00449991  .00006452  00000+0  27197-3 0  9993",
        "tle_line2": "2 40143  97.1756  26.4791 0009963  52.7646 307.4499 15.23605202625976"
      },
      "geometry": {
        "type": "Point",
        "coordinates": [
          43.72512076367299,
          -66.62141943017059
        ]
      }
    },
    {
      "type": "Feature",
      "properties": {
        "norad_id": 40275,
        "name": "YAOGAN-22",
        "group": "resource",
        "lat": 14.780283592094351,
        "lon": -50.43762203933145,
        "alt_km": 1202.6096464505772,
        "timestamp": "2025-12-09T07:41:32.860024+00:00",
        "meta_object_name": "YAOGAN-22",
        "meta_object_id": "2014-063A",
        "meta_epoch": "2025-12-08T23:33:20.209824",
        "meta_mean_motion": 13.15522481,
        "meta_eccentricity": 0.00059302,
        "meta_inclination": 100.742,
        "meta_ra_of_asc_node": 126.348,
        "meta_arg_of_pericenter": 257.3638,
        "meta_mean_anomaly": 102.681,
        "meta_ephemeris_type": 0,
        "meta_classification_type": "U",
        "meta_norad_cat_id": 40275,
        "meta_element_set_no": 999,
        "meta_rev_at_epoch": 53480,
        "meta_bstar": 0.00011570888,
        "meta_mean_motion_dot": -3e-08,
        "meta_mean_motion_ddot": 0,
        "tle_line1": "1 40275U 14063A   25342.98148391 -.00000003  00000+0  11571-3 0  9992",
        "tle_line2": "2 40275 100.7420 126.3480 0005930 257.3638 102.6810 13.15522481534809"
      },
      "geometry": {
        "type": "Point",
        "coordinates": [
          -50.43762203933145,
          14.780283592094351
        ]
      }
    },
    {
      "type": "Feature",
      "properties": {
        "norad_id": 40298,
        "name": "ASNARO",
        "group": "resource",
        "lat": 31.49841560823708,
        "lon": 54.80443710516295,
        "alt_km": 506.6085900228354,
        "timestamp": "2025-12-09T07:41:32.860034+00:00",
        "meta_object_name": "ASNARO",
        "meta_object_id": "2014-070A",
        "meta_epoch": "2025-12-08T22:04:09.077664",
        "meta_mean_motion": 15.19359043,
        "meta_eccentricity": 0.0005407,
        "meta_inclination": 97.3651,
        "meta_ra_of_asc_node": 58.9594,
        "meta_arg_of_pericenter": 131.5407,
        "meta_mean_anomaly": 228.6292,
        "meta_ephemeris_type": 0,
        "meta_classification_type": "U",
        "meta_norad_cat_id": 40298,
        "meta_element_set_no": 999,
        "meta_rev_at_epoch": 61511,
        "meta_bstar": 0.00021793573,
        "meta_mean_motion_dot": 4.542e-05,
        "meta_mean_motion_ddot": 0,
        "tle_line1": "1 40298U 14070A   25342.91954951  .00004542  00000+0  21794-3 0  9994",
        "tle_line2": "2 40298  97.3651  58.9594 0005407 131.5407 228.6292 15.19359043615118"
      },
      "geometry": {
        "type": "Point",
        "coordinates": [
          54.80443710516295,
          31.49841560823708
        ]
      }
    },
    {
      "type": "Feature",
      "properties": {
        "norad_id": 40310,
        "name": "YAOGAN-24",
        "group": "resource",
        "lat": 3.780769794424955,
        "lon": -65.06376569710292,
        "alt_km": 634.9199360959792,
        "timestamp": "2025-12-09T07:41:32.860045+00:00",
        "meta_object_name": "YAOGAN-24",
        "meta_object_id": "2014-072A",
        "meta_epoch": "2025-12-08T22:45:50.636736",
        "meta_mean_motion": 14.76166185,
        "meta_eccentricity": 0.00145304,
        "meta_inclination": 98.1224,
        "meta_ra_of_asc_node": 114.0216,
        "meta_arg_of_pericenter": 149.4812,
        "meta_mean_anomaly": 210.7246,
        "meta_ephemeris_type": 0,
        "meta_classification_type": "U",
        "meta_norad_cat_id": 40310,
        "meta_element_set_no": 999,
        "meta_rev_at_epoch": 59565,
        "meta_bstar": 0.00029090841,
        "meta_mean_motion_dot": 1.961e-05,
        "meta_mean_motion_ddot": 0,
        "tle_line1": "1 40310U 14072A   25342.94850274  .00001961  00000+0  29091-3 0  9997",
        "tle_line2": "2 40310  98.1224 114.0216 0014530 149.4812 210.7246 14.76166185595650"
      },
      "geometry": {
        "type": "Point",
        "coordinates": [
          -65.06376569710292,
          3.780769794424955
        ]
      }
    },
    {
      "type": "Feature",
      "properties": {
        "norad_id": 40336,
        "name": "CBERS 4",
        "group": "resource",
        "lat": 55.206111929321885,
        "lon": 29.28025561533657,
        "alt_km": 767.5103547116823,
        "timestamp": "2025-12-09T07:41:32.860055+00:00",
        "meta_object_name": "CBERS 4",
        "meta_object_id": "2014-079A",
        "meta_epoch": "2025-12-08T23:04:04.305216",
        "meta_mean_motion": 14.35514899,
        "meta_eccentricity": 0.00015565,
        "meta_inclination": 98.331,
        "meta_ra_of_asc_node": 41.1071,
        "meta_arg_of_pericenter": 116.0674,
        "meta_mean_anomaly": 244.0673,
        "meta_ephemeris_type": 0,
        "meta_classification_type": "U",
        "meta_norad_cat_id": 40336,
        "meta_element_set_no": 999,
        "meta_rev_at_epoch": 57666,
        "meta_bstar": 2.8118184e-05,
        "meta_mean_motion_dot": 3.9e-07,
        "meta_mean_motion_ddot": 0,
        "tle_line1": "1 40336U 14079A   25342.96116094  .00000039  00000+0  28118-4 0  9994",
        "tle_line2": "2 40336  98.3310  41.1071 0001556 116.0674 244.0673 14.35514899576663"
      },
      "geometry": {
        "type": "Point",
        "coordinates": [
          29.28025561533657,
          55.206111929321885
        ]
      }
    }
  ]
}